[{"OBJECT_NAME":"OCEANSAT-2","OBJECT_ID":"2009-051A","EPOCH":"2026-03-09T23:26:13.608096","MEAN_MOTION":13.9963812,"ECCENTRICITY":0.00172663,"INCLINATION":98.2279,"RA_OF_ASC_NODE":65.7594,"ARG_OF_PERICENTER":150.7548,"MEAN_ANOMALY":209.4589,"EPHEMERIS_TYPE":0,"CLASSIFICATION_TYPE":"U","NORAD_CAT_ID":35931,"ELEMENT_SET_NO":999,"REV_AT_EPOCH":86545,"BSTAR":0.00020254017,"MEAN_MOTION_DOT":2.59e-6,"MEAN_MOTION_DDOT":0},{"OBJECT_NAME":"CZ-6A DEB","OBJECT_ID":"2022-151KR","EPOCH":"2026-03-09T23:36:19.779264","MEAN_MOTION":14.0727868,"ECCENTRICITY":0.00597482,"INCLINATION":98.8609,"RA_OF_ASC_NODE":66.5922,"ARG_OF_PERICENTER":285.2378,"MEAN_ANOMALY":74.219,"EPHEMERIS_TYPE":0,"CLASSIFICATION_TYPE":"U","NORAD_CAT_ID":54541,"ELEMENT_SET_NO":999,"REV_AT_EPOCH":17041,"BSTAR":0.00030137772,"MEAN_MOTION_DOT":4.7e-6,"MEAN_MOTION_DDOT":0}]
